sat27738
1 27738U 81120K   20046.48269089  .00000020  00000-0  10574-3 0  9999
2 27738  82.9576 112.5545 0057717 100.1766 272.1172 12.15620370947567
